[{"OBJECT_NAME":"FLOCK 4G-5","OBJECT_ID":"2025-009BG","EPOCH":"2026-03-09T10:57:11.608704","MEAN_MOTION":15.28679529,"ECCENTRICITY":0.00020946,"INCLINATION":97.4058,"RA_OF_ASC_NODE":151.2478,"ARG_OF_PERICENTER":314.5072,"MEAN_ANOMALY":45.5996,"EPHEMERIS_TYPE":0,"CLASSIFICATION_TYPE":"U","NORAD_CAT_ID":62663,"ELEMENT_SET_NO":999,"REV_AT_EPOCH":6369,"BSTAR":0.00040688068,"MEAN_MOTION_DOT":0.00011278,"MEAN_MOTION_DDOT":0},{"OBJECT_NAME":"STARLINK-36513","OBJECT_ID":"2026-005AB","EPOCH":"2026-03-09T22:00:01.999584","MEAN_MOTION":15.27514264,"ECCENTRICITY":0.00018207,"INCLINATION":43.0014,"RA_OF_ASC_NODE":236.558,"ARG_OF_PERICENTER":276.181,"MEAN_ANOMALY":53.517,"EPHEMERIS_TYPE":0,"CLASSIFICATION_TYPE":"U","NORAD_CAT_ID":67429,"ELEMENT_SET_NO":999,"REV_AT_EPOCH":588,"BSTAR":0.0026396053,"MEAN_MOTION_DOT":0.00072949,"MEAN_MOTION_DDOT":0}]
